OBJECT_NAME,OBJECT_ID,EPOCH,MEAN_MOTION,ECCENTRICITY,INCLINATION,RA_OF_ASC_NODE,ARG_OF_PERICENTER,MEAN_ANOMALY,EPHEMERIS_TYPE,CLASSIFICATION_TYPE,NORAD_CAT_ID,ELEMENT_SET_NO,REV_AT_EPOCH,BSTAR,MEAN_MOTION_DOT,MEAN_MOTION_DDOT
MONITOR-3 (RS58S),2023-091Q,2026-06-15T22:53:37.916448,15.27821458,.00131116,97.5086,230.3907,104.5400,255.7294,0,U,57180,999,16410,.33000048E-3,.8913E-4,0
MONITOR-4 (RS57S),2023-091S,2026-06-15T22:23:34.403712,15.27905854,.00131124,97.5080,230.3410,104.9940,255.2751,0,U,57182,999,16410,.33285706E-3,.9014E-4,0
MONITOR-2 (RS39S),2023-091U,2026-06-15T22:18:05.934240,15.18900665,.00126975,97.5074,225.2202,114.8645,245.3910,0,U,57184,999,16376,.20954669E-3,.4312E-4,0
SVYATOBOR 1 (RS60S),2023-091X,2026-06-15T22:40:52.646592,15.26597448,.00108897,97.5092,230.7551,98.0523,262.1951,0,U,57187,999,16412,.28895137E-3,.7503E-4,0
HORS 1,2023-091Y,2026-06-15T22:20:10.771872,15.26704133,.00103584,97.5070,230.5032,98.0554,262.1860,0,U,57188,999,16412,.32082366E-3,.8365E-4,0
VIZARD-METEO (RS38S),2023-091Z,2026-06-15T21:50:10.677120,15.35992407,.00083373,97.5096,236.3690,81.5789,278.6399,0,U,57189,999,16449,.40111314E-3,.13998E-3,0
SITRO-AIS 6 (CHIRKIN),2023-091AC,2026-06-15T22:24:46.356768,15.25914627,.00131,97.5070,229.9470,110.3124,249.9523,0,U,57192,999,16409,.34163267E-3,.8711E-4,0
SITRO-AIS 8 (ANOKHIN),2023-091AD,2026-06-15T21:52:43.843584,15.32106646,.00118084,97.5060,232.3821,103.8160,256.4396,0,U,57193,999,16425,.38382547E-3,.11849E-3,0
SITRO-AIS 7 (FARTUSHNIY),2023-091AE,2026-06-15T22:28:56.308512,15.25602947,.00129425,97.5068,229.7753,111.2081,249.0541,0,U,57194,999,16408,.33147174E-3,.8369E-4,0
AVION KALUGA 650,2023-091AF,2026-06-15T21:52:49.018944,15.20341086,.00118849,97.5091,226.4932,113.0937,247.1552,0,U,57195,999,16383,.24102026E-3,.5182E-4,0
HORS 2,2023-091AG,2026-06-15T22:09:16.585632,15.31865118,.0009414,97.5093,233.9353,91.6679,268.5641,0,U,57196,999,16433,.36697056E-3,.1123E-3,0
A-SEANSAT-PG1,2023-091AH,2026-06-15T23:16:03.169632,15.36925247,.00083341,97.5086,236.5246,88.7064,271.5135,0,U,57197,999,16452,.4145129E-3,.14911E-3,0
SITRO-AIS 10 (BURDAEV),2023-091AK,2026-06-15T22:45:52.721568,15.38572152,.00076022,97.5086,237.4609,84.0283,276.1828,0,U,57199,999,16457,.44862491E-3,.17032E-3,0
SITRO-AIS 9 (SHCHUKIN),2023-091AM,2026-06-15T21:49:38.532000,15.38080195,.00078314,97.5083,237.1519,84.2397,275.9740,0,U,57201,999,16455,.42126774E-3,.15732E-3,0
UTMN 2 (RS27S),2023-091AP,2026-06-15T22:48:39.845952,15.32026265,.00093193,97.5091,234.1542,87.4624,272.7684,0,U,57203,999,16435,.35700302E-3,.10977E-3,0
SITRO-AIS 12 (SMIRENNIY),2023-091AQ,2026-06-15T23:10:09.216480,15.38374971,.00073772,97.5097,237.6755,79.0004,281.2070,0,U,57204,999,16458,.4404079E-3,.16609E-3,0
SITRO-AIS 11 (SHEFFER),2023-091AU,2026-06-15T21:56:18.896640,15.38797540,.00072629,97.5096,237.8688,79.2658,280.9404,0,U,57208,999,16459,.42250321E-3,.1615E-3,0
H2SAT (HEINRICH HERTZ),2023-093A,2026-06-14T16:22:38.496000,1.00272092,.00008601,0.0576,110.9536,82.8758,315.5159,0,U,57213,999,1089,0,.9E-7,0
KUZGTU 1 (RS47S),2023-091AV,2026-06-15T22:07:55.870752,15.29838015,.00123367,97.5067,231.3892,101.9153,258.3471,0,U,57217,999,16418,.36149001E-3,.10394E-3,0
QIANKUN-1,2023-103B,2026-06-15T08:46:25.019040,16.08420909,.00293788,96.1468,211.3446,145.9035,214.4147,0,U,57422,999,16700,.23232943E-4,.20233E-3,.1838074E-5
FENGYUN 3F,2023-111A,2026-06-15T23:42:17.659296,14.19938909,.00015806,98.6835,237.0187,94.4671,265.6686,0,U,57490,999,14869,.38947603E-4,.39E-6,0
HJ-2F,2023-116A,2026-06-16T00:05:07.789632,15.22306900,.00099525,97.3836,172.2427,55.6785,304.5392,0,U,57519,999,15857,.28304443E-3,.6461E-4,0
XRISM,2023-137A,2026-06-15T22:28:55.049664,15.12457150,.00079586,31.0032,7.7018,311.4201,48.5754,0,U,57800,999,15267,.24590239E-3,.4483E-4,0
METEOR-M2 4,2024-039A,2026-06-15T23:42:10.238400,14.22429407,.00072176,98.7010,126.3007,164.3484,195.7918,0,U,59051,999,11909,.16507978E-4,-.7E-7,0
GRBBETA,2024-128C,2026-06-15T11:52:01.565184,15.06630585,.00408509,61.9889,222.2055,134.3380,226.1074,0,U,60237,999,10601,.20649176E-3,.2913E-4,0
TRANSPORTER-11 OBJECT A,2024-149A,2026-06-15T17:13:01.382304,15.32886416,.00026365,97.3738,246.6513,199.1103,161.0040,0,U,60468,999,10183,.22945932E-3,.721E-4,0
WARATAH SEED-1,2024-149B,2026-06-15T22:31:18.232608,15.35918999,.00014189,97.3695,247.5115,181.8336,178.2903,0,U,60469,999,10192,.30046798E-3,.10427E-3,0
PHISAT 2,2024-149C,2026-06-15T22:28:10.472448,15.31053453,.00009104,97.3762,246.1588,175.6215,184.5035,0,U,60470,999,10180,.31456922E-3,.9363E-4,0
LEMUR-2-TOMATOKECHUP,2024-149D,2026-06-15T19:18:22.124736,15.36010155,.00012908,97.3807,248.8473,178.9166,181.2081,0,U,60471,999,10195,.26474501E-3,.9203E-4,0
